IRIDIUM 166             
1 43570U 18061B   25247.87201861  .00000014  00000+0 -20971-5 0  9997
2 43570  86.4046 175.9758 0002340  83.1165 277.0297 14.34217052372504
IRIDIUM 158             
1 43571U 18061C   25247.84030292  .00000311  00000+0  10415-3 0  9992
2 43571  86.4041 175.9988 0002142  88.5537 271.5904 14.34216589372460
IRIDIUM 165             
1 43572U 18061D   25247.86567694  .00000516  00000+0  17709-3 0  9996
2 43572  86.4044 176.0287 0002351  81.7341 278.4121 14.34218182372499
IRIDIUM 155             
1 43573U 18061E   25247.19970186  .00000406  00000+0  13782-3 0  9992
2 43573  86.4039 176.1901 0002343  89.4078 270.7386 14.34220286372363
IRIDIUM 154             
1 43574U 18061F   25247.87836941  .00000314  00000+0  10511-3 0  9993
2 43574  86.4045 176.0263 0002293  83.4280 276.7177 14.34220424372519
IRIDIUM 163             
1 43575U 18061G   25247.71979552  .00000211  00000+0  68178-4 0  9992
2 43575  86.4043 176.0169 0002053  87.1354 273.0077 14.34218881372467
IRIDIUM 156             
1 43576U 18061H   25247.20604728  .00000017  00000+0 -81390-6 0  9995
2 43576  86.4044 176.2382 0002332  89.6018 270.5445 14.34217679372388
IRIDIUM 164             
1 43577U 18061J   25247.88470416  .00000062  00000+0  14928-4 0  9995
2 43577  86.4039 175.9906 0002430  81.8151 278.3321 14.34218303372522
